NORAD_CAT_ID,OBJECT_NAME,OBJECT_TYPE,EPOCH,MEAN_MOTION,ECCENTRICITY,INCLINATION,RA_OF_ASC_NODE,ARG_OF_PERICENTER,MEAN_ANOMALY,BSTAR,MEAN_MOTION_DOT,MEAN_MOTION_DDOT,TLE_LINE0,TLE_LINE1,TLE_LINE2,SEMIMAJOR_AXIS,PERIOD,APOGEE,PERIGEE,DECAYED
53985.0,STARLINK-5147,PAYLOAD,2023-10-26 18:08:38,15.08851839,0.0001282,53.215,137.1914,85.6433,274.4706,0.00028169,4.199e-05,0.0,0 STARLINK-5147,1 53985U 22125X   23299.75599703  .00004199  00000-0  28169-3 0  9994,2 53985  53.2150 137.1914 0001282  85.6433 274.4706 15.08851839 58951,6917.844,95.437,540.596,538.822,0.0
53985.0,STARLINK-5147,PAYLOAD,2023-10-26 21:19:24,15.08855514,0.0001302,53.215,136.5971,82.4387,277.6753,0.00044472,6.8e-05,0.0,0 STARLINK-5147,1 53985U 22125X   23299.88847606  .00006800  00000-0  44472-3 0  9992,2 53985  53.2150 136.5971 0001302  82.4387 277.6753 15.08855514 58909,6917.833,95.437,540.599,538.797,0.0
53985.0,STARLINK-5147,PAYLOAD,2023-10-27 06:51:43,15.08847979,0.0001283,53.2148,134.8122,73.1199,286.9933,0.00033743,5.088e-05,0.0,0 STARLINK-5147,1 53985U 22125X   23300.28591678  .00005088  00000-0  33743-3 0  9990,2 53985  53.2148 134.8122 0001283  73.1199 286.9933 15.08847979 59035,6917.856,95.437,540.609,538.833,0.0
53985.0,STARLINK-5147,PAYLOAD,2023-10-27 13:13:15,15.0883896,0.0001339,53.215,133.6235,81.7866,278.3278,-3.1566e-05,-7.9e-06,0.0,0 STARLINK-5147,1 53985U 22125X   23300.55087934 -.00000790  00000-0 -31566-4 0  9994,2 53985  53.2150 133.6235 0001339  81.7866 278.3278 15.08838960 59002,6917.884,95.438,540.675,538.822,0.0
53985.0,STARLINK-5147,PAYLOAD,2023-10-27 19:34:48,15.08842609,0.0001437,53.2159,132.4342,92.3209,267.7948,0.00012068,1.633e-05,0.0,0 STARLINK-5147,1 53985U 22125X   23300.81583850  .00001633  00000-0  12068-3 0  9991,2 53985  53.2159 132.4342 0001437  92.3209 267.7948 15.08842609 59118,6917.872,95.437,540.732,538.743,0.0
53985.0,STARLINK-5147,PAYLOAD,2023-10-28 19:25:36,15.08830632,0.0001114,53.2163,127.9732,86.1957,273.9163,-8.6098e-05,-1.657e-05,0.0,0 STARLINK-5147,1 53985U 22125X   23301.80945331 -.00001657  00000-0 -86098-4 0  9990,2 53985  53.2163 127.9732 0001114  86.1957 273.9163 15.08830632 59265,6917.909,95.438,540.545,539.003,0.0
53985.0,STARLINK-5147,PAYLOAD,2023-10-29 11:19:28,15.08831231,0.0001316,53.2162,124.9994,91.9425,268.1717,2.1679e-05,5.7e-07,0.0,0 STARLINK-5147,1 53985U 22125X   23302.47185490  .00000057  00000-0  21679-4 0  9991,2 53985  53.2162 124.9994 0001316  91.9425 268.1717 15.08831231 59299,6917.907,95.438,540.683,538.862,0.0
53985.0,STARLINK-5147,PAYLOAD,2023-10-29 19:16:23,15.08838679,0.0001211,53.2159,123.513,90.6041,269.509,0.00010314,1.354e-05,0.0,0 STARLINK-5147,1 53985U 22125X   23302.80305054  .00001354  00000-0  10314-3 0  9992,2 53985  53.2159 123.5130 0001211  90.6041 269.5090 15.08838679 59412,6917.884,95.438,540.587,538.912,0.0
53985.0,STARLINK-5147,PAYLOAD,2023-10-30 20:42:33,15.08851388,0.0001152,53.215,118.7545,89.0148,271.0976,0.00037299,5.655e-05,0.0,0 STARLINK-5147,1 53985U 22125X   23303.86288636  .00005655  00000-0  37299-3 0  9994,2 53985  53.2150 118.7545 0001152  89.0148 271.0976 15.08851388 59506,6917.846,95.437,540.508,538.914,0.0
53985.0,STARLINK-5147,PAYLOAD,2023-10-31 04:39:28,15.08851526,0.0001254,53.2156,117.2672,79.1608,280.9525,0.00023521,3.459e-05,0.0,0 STARLINK-5147,1 53985U 22125X   23304.19408537  .00003459  00000-0  23521-3 0  9998,2 53985  53.2156 117.2672 0001254  79.1608 280.9525 15.08851526 59559,6917.845,95.437,540.578,538.843,0.0
53985.0,STARLINK-5147,PAYLOAD,2023-10-31 18:57:57,15.08845599,0.0001449,53.2176,114.5908,70.5195,289.5953,3.7106e-05,3.03e-06,0.0,0 STARLINK-5147,1 53985U 22125X   23304.79024584  .00000303  00000-0  37106-4 0  9990,2 53985  53.2176 114.5908 0001449  70.5195 289.5953 15.08845599 59716,6917.863,95.437,540.731,538.726,0.0
53985.0,STARLINK-5147,PAYLOAD,2023-10-31 20:33:20,15.08845725,0.0001457,53.2176,114.2933,70.5463,289.5687,3.3652e-05,2.48e-06,0.0,0 STARLINK-5147,1 53985U 22125X   23304.85648538  .00000248  00000-0  33652-4 0  9998,2 53985  53.2176 114.2933 0001457  70.5463 289.5687 15.08845725 59656,6917.863,95.437,540.736,538.72,0.0
53985.0,STARLINK-5147,PAYLOAD,2023-11-01 04:30:15,15.08843358,0.0001167,53.2161,112.8061,80.3056,279.8068,-3.9517e-05,-9.17e-06,0.0,0 STARLINK-5147,1 53985U 22125X   23305.18768494 -.00000917  00000-0 -39517-4 0  9990,2 53985  53.2161 112.8061 0001167  80.3056 279.8068 15.08843358 59702,6917.87,95.437,540.542,538.928,0.0
53985.0,STARLINK-5147,PAYLOAD,2023-11-01 20:24:07,15.08844308,0.0001301,53.2174,109.8329,78.6424,281.4714,4.5033e-05,4.29e-06,0.0,0 STARLINK-5147,1 53985U 22125X   23305.85008750  .00000429  00000-0  45033-4 0  9992,2 53985  53.2174 109.8329 0001301  78.6424 281.4714 15.08844308 59879,6917.867,95.437,540.632,538.832,0.0
53985.0,STARLINK-5147,PAYLOAD,2023-11-02 10:42:35,15.08844052,0.0001439,53.2169,107.1584,78.8995,281.2159,9.9746e-05,1.3e-05,0.0,0 STARLINK-5147,1 53985U 22125X   23306.44624553  .00001300  00000-0  99746-4 0  9992,2 53985  53.2169 107.1584 0001439  78.8995 281.2159 15.08844052 59893,6917.868,95.437,540.728,538.738,0.0
53985.0,STARLINK-5147,PAYLOAD,2023-11-02 17:04:07,15.08849527,0.0001226,53.2163,105.9687,83.5825,276.5306,0.00017975,2.575e-05,0.0,0 STARLINK-5147,1 53985U 22125X   23306.71120164  .00002575  00000-0  17975-3 0  9999,2 53985  53.2163 105.9687 0001226  83.5825 276.5306 15.08849527 59934,6917.851,95.437,540.564,538.868,0.0
53985.0,STARLINK-5147,PAYLOAD,2023-11-03 04:11:49,15.08844992,0.0001207,53.216,103.8872,81.1491,278.9638,0.00014773,2.064e-05,0.0,0 STARLINK-5147,1 53985U 22125X   23307.17488337  .00002064  00000-0  14773-3 0  9995,2 53985  53.2160 103.8872 0001207  81.1491 278.9638 15.08844992 60078,6917.865,95.437,540.565,538.895,0.0
53985.0,STARLINK-5147,PAYLOAD,2023-11-03 13:44:09,15.0883937,0.0001389,53.2165,102.1032,90.0868,270.0283,9.9405e-05,1.294e-05,0.0,0 STARLINK-5147,1 53985U 22125X   23307.57232685  .00001294  00000-0  99405-4 0  9992,2 53985  53.2165 102.1032 0001389  90.0868 270.0283 15.08839370 60063,6917.882,95.438,540.708,538.786,0.0
53985.0,STARLINK-5147,PAYLOAD,2023-11-03 16:54:55,15.08842257,0.0001334,53.2174,101.5077,91.2775,268.837,5.7369e-05,6.25e-06,0.0,0 STARLINK-5147,1 53985U 22125X   23307.70480584  .00000625  00000-0  57369-4 0  9990,2 53985  53.2174 101.5077 0001334  91.2775 268.8370 15.08842257 60087,6917.873,95.437,540.661,538.816,0.0
53985.0,STARLINK-5147,PAYLOAD,2023-11-04 10:24:10,15.08836883,0.0001376,53.2175,98.2362,95.2838,264.8311,1.1481e-05,-1.05e-06,0.0,0 STARLINK-5147,1 53985U 22125X   23308.43345096 -.00000105  00000-0  11481-4 0  9998,2 53985  53.2175  98.2362 0001376  95.2838 264.8311 15.08836883 60266,6917.89,95.438,540.707,538.803,0.0
53985.0,STARLINK-5147,PAYLOAD,2023-11-04 13:34:58,15.08773921,0.0001205,53.2174,97.6423,112.8985,247.2135,0.00096063,0.00015006,0.0,0 STARLINK-5147,1 53985U 22125X   23308.56595165  .00015006  00000-0  96063-3 0  9999,2 53985  53.2174  97.6423 0001205 112.8985 247.2135 15.08773921 60213,6918.082,95.442,540.781,539.114,0.0
53985.0,STARLINK-5147,PAYLOAD,2023-11-04 16:45:42,15.08840236,0.0001214,53.2173,97.0482,88.4304,271.6827,9.9428e-06,-1.3e-06,0.0,0 STARLINK-5147,1 53985U 22125X   23308.69840819 -.00000130  00000-0  99428-5 0  9995,2 53985  53.2173  97.0482 0001214  88.4304 271.6827 15.08840236 60239,6917.88,95.438,540.584,538.905,0.0
53985.0,STARLINK-5147,PAYLOAD,2023-11-05 10:14:56,15.0884212,0.0001273,53.2176,93.7773,91.7952,268.3186,0.00011885,1.604e-05,0.0,0 STARLINK-5147,1 53985U 22125X   23309.42704443  .00001604  00000-0  11885-3 0  9994,2 53985  53.2176  93.7773 0001273  91.7952 268.3186 15.08842120 60414,6917.874,95.437,540.62,538.858,0.0
53985.0,STARLINK-5147,PAYLOAD,2023-11-05 13:25:42,15.08846143,0.0001273,53.2178,93.1827,91.8296,268.2842,0.0001498,2.097e-05,0.0,0 STARLINK-5147,1 53985U 22125X   23309.55952110  .00002097  00000-0  14980-3 0  9990,2 53985  53.2178  93.1827 0001273  91.8296 268.2842 15.08846143 60363,6917.862,95.437,540.607,538.846,0.0
53985.0,STARLINK-5147,PAYLOAD,2023-11-05 16:36:28,15.08852434,0.0001324,53.2177,92.5881,88.4667,271.6477,0.00020084,2.911e-05,0.0,0 STARLINK-5147,1 53985U 22125X   23309.69199649  .00002911  00000-0  20084-3 0  9992,2 53985  53.2177  92.5881 0001324  88.4667 271.6477 15.08852434 60458,6917.842,95.437,540.623,538.791,0.0
53985.0,STARLINK-5147,PAYLOAD,2023-11-06 13:16:31,15.08799713,0.0001223,53.217,88.7223,68.1523,291.9599,-0.00084956,-0.00013768,0.0,0 STARLINK-5147,1 53985U 22125X   23310.55313754 -.00013768  00000-0 -84956-3 0  9996,2 53985  53.2170  88.7223 0001223  68.1523 291.9599 15.08799713 60519,6918.004,95.44,540.715,539.022,0.0
53985.0,STARLINK-5147,PAYLOAD,2023-11-06 16:27:17,15.08802536,0.0001286,53.2167,88.1271,87.8692,272.2447,-0.00096428,-0.00015586,0.0,0 STARLINK-5147,1 53985U 22125X   23310.68561476 -.00015586  00000-0 -96428-3 0  9993,2 53985  53.2167  88.1271 0001286  87.8692 272.2447 15.08802536 60608,6917.995,95.44,540.75,538.97,0.0
53985.0,STARLINK-5147,PAYLOAD,2023-11-07 08:21:09,15.08799005,0.0001149,53.2163,85.1515,80.9541,279.1581,-0.00034542,-5.775e-05,0.0,0 STARLINK-5147,1 53985U 22125X   23311.34802957 -.00005775  00000-0 -34542-3 0  9997,2 53985  53.2163  85.1515 0001149  80.9541 279.1581 15.08799005 60709,6918.006,95.44,540.666,539.076,0.0
53985.0,STARLINK-5147,PAYLOAD,2023-11-07 13:07:19,15.08799258,0.0001271,53.2163,84.2611,86.6389,273.4749,0.00092169,0.00014395,0.0,0 STARLINK-5147,1 53985U 22125X   23311.54675828  .00014395  00000-0  92169-3 0  9999,2 53985  53.2163  84.2611 0001271  86.6389 273.4749 15.08799258 60663,6918.005,95.44,540.749,538.991,0.0
53985.0,STARLINK-5147,PAYLOAD,2023-11-07 16:18:06,15.08811931,0.00013,53.2166,83.6674,87.4175,272.6966,0.0014817,0.00023354,0.0,0 STARLINK-5147,1 53985U 22125X   23311.67924127  .00023354  00000-0  14817-2 0  9990,2 53985  53.2166  83.6674 0001300  87.4175 272.6966 15.08811931 60758,6917.966,95.439,540.731,538.932,0.0
